{
  "type": "FeatureCollection",
  "features": [
    {
      "type": "Feature",
      "properties": {
        "norad_id": 44850,
        "name": "COSMOS 2544 (759)",
        "group": "gnss",
        "lat": NaN,
        "lon": NaN,
        "alt_km": NaN,
        "timestamp": "2025-12-01T02:46:59.660912+00:00",
        "meta": {
          "OBJECT_NAME": "COSMOS 2544 (759)",
          "OBJECT_ID": "2019-088A",
          "EPOCH": "2025-11-28T15:42:43.210656",
          "MEAN_MOTION": 2.13101801,
          "ECCENTRICITY": 0.00135594,
          "INCLINATION": 65.4525,
          "RA_OF_ASC_NODE": 80.4296,
          "ARG_OF_PERICENTER": 248.4541,
          "MEAN_ANOMALY": 111.4081,
          "EPHEMERIS_TYPE": 0,
          "CLASSIFICATION_TYPE": "U",
          "NORAD_CAT_ID": 44850,
          "ELEMENT_SET_NO": 999,
          "REV_AT_EPOCH": 4644,
          "BSTAR": 0,
          "MEAN_MOTION_DOT": 1.2e-07,
          "MEAN_MOTION_DDOT": 0
        }
      },
      "geometry": {
        "type": "Point",
        "coordinates": [
          NaN,
          NaN
        ]
      }
    },
    {
      "type": "Feature",
      "properties": {
        "norad_id": 44864,
        "name": "BEIDOU-3 M19 (C41)",
        "group": "gnss",
        "lat": NaN,
        "lon": NaN,
        "alt_km": NaN,
        "timestamp": "2025-12-01T02:46:59.660930+00:00",
        "meta": {
          "OBJECT_NAME": "BEIDOU-3 M19 (C41)",
          "OBJECT_ID": "2019-090A",
          "EPOCH": "2025-11-30T07:50:16.471392",
          "MEAN_MOTION": 1.86231174,
          "ECCENTRICITY": 0.00174505,
          "INCLINATION": 56.3822,
          "RA_OF_ASC_NODE": 69.374,
          "ARG_OF_PERICENTER": 284.6281,
          "MEAN_ANOMALY": 123.4614,
          "EPHEMERIS_TYPE": 0,
          "CLASSIFICATION_TYPE": "U",
          "NORAD_CAT_ID": 44864,
          "ELEMENT_SET_NO": 999,
          "REV_AT_EPOCH": 4053,
          "BSTAR": 0,
          "MEAN_MOTION_DOT": -3.3e-07,
          "MEAN_MOTION_DDOT": 0
        }
      },
      "geometry": {
        "type": "Point",
        "coordinates": [
          NaN,
          NaN
        ]
      }
    },
    {
      "type": "Feature",
      "properties": {
        "norad_id": 44865,
        "name": "BEIDOU-3 M20 (C42)",
        "group": "gnss",
        "lat": NaN,
        "lon": NaN,
        "alt_km": NaN,
        "timestamp": "2025-12-01T02:46:59.660947+00:00",
        "meta": {
          "OBJECT_NAME": "BEIDOU-3 M20 (C42)",
          "OBJECT_ID": "2019-090B",
          "EPOCH": "2025-11-30T17:30:55.303200",
          "MEAN_MOTION": 1.86231137,
          "ECCENTRICITY": 0.0014593,
          "INCLINATION": 56.3841,
          "RA_OF_ASC_NODE": 69.3949,
          "ARG_OF_PERICENTER": 297.5336,
          "MEAN_ANOMALY": 110.5134,
          "EPHEMERIS_TYPE": 0,
          "CLASSIFICATION_TYPE": "U",
          "NORAD_CAT_ID": 44865,
          "ELEMENT_SET_NO": 999,
          "REV_AT_EPOCH": 4052,
          "BSTAR": 0,
          "MEAN_MOTION_DOT": -3.6e-07,
          "MEAN_MOTION_DDOT": 0
        }
      },
      "geometry": {
        "type": "Point",
        "coordinates": [
          NaN,
          NaN
        ]
      }
    },
    {
      "type": "Feature",
      "properties": {
        "norad_id": 45344,
        "name": "BEIDOU-3 G2 (C60)",
        "group": "gnss",
        "lat": NaN,
        "lon": NaN,
        "alt_km": NaN,
        "timestamp": "2025-12-01T02:46:59.660965+00:00",
        "meta": {
          "OBJECT_NAME": "BEIDOU-3 G2 (C60)",
          "OBJECT_ID": "2020-017A",
          "EPOCH": "2025-11-30T21:04:21.466272",
          "MEAN_MOTION": 1.00270725,
          "ECCENTRICITY": 0.0004412,
          "INCLINATION": 2.977,
          "RA_OF_ASC_NODE": 43.5121,
          "ARG_OF_PERICENTER": 264.0139,
          "MEAN_ANOMALY": 158.6326,
          "EPHEMERIS_TYPE": 0,
          "CLASSIFICATION_TYPE": "U",
          "NORAD_CAT_ID": 45344,
          "ELEMENT_SET_NO": 999,
          "REV_AT_EPOCH": 2127,
          "BSTAR": 0,
          "MEAN_MOTION_DOT": -1.21e-06,
          "MEAN_MOTION_DDOT": 0
        }
      },
      "geometry": {
        "type": "Point",
        "coordinates": [
          NaN,
          NaN
        ]
      }
    },
    {
      "type": "Feature",
      "properties": {
        "norad_id": 45358,
        "name": "COSMOS 2545 (760)",
        "group": "gnss",
        "lat": NaN,
        "lon": NaN,
        "alt_km": NaN,
        "timestamp": "2025-12-01T02:46:59.660982+00:00",
        "meta": {
          "OBJECT_NAME": "COSMOS 2545 (760)",
          "OBJECT_ID": "2020-018A",
          "EPOCH": "2025-11-30T06:11:57.120864",
          "MEAN_MOTION": 2.13102401,
          "ECCENTRICITY": 0.00119448,
          "INCLINATION": 64.4769,
          "RA_OF_ASC_NODE": 319.4079,
          "ARG_OF_PERICENTER": 248.2158,
          "MEAN_ANOMALY": 111.6706,
          "EPHEMERIS_TYPE": 0,
          "CLASSIFICATION_TYPE": "U",
          "NORAD_CAT_ID": 45358,
          "ELEMENT_SET_NO": 999,
          "REV_AT_EPOCH": 4442,
          "BSTAR": 0,
          "MEAN_MOTION_DOT": -2.2e-07,
          "MEAN_MOTION_DDOT": 0
        }
      },
      "geometry": {
        "type": "Point",
        "coordinates": [
          NaN,
          NaN
        ]
      }
    },
    {
      "type": "Feature",
      "properties": {
        "norad_id": 45807,
        "name": "BEIDOU-3 G3 (C61)",
        "group": "gnss",
        "lat": NaN,
        "lon": NaN,
        "alt_km": NaN,
        "timestamp": "2025-12-01T02:46:59.661000+00:00",
        "meta": {
          "OBJECT_NAME": "BEIDOU-3 G3 (C61)",
          "OBJECT_ID": "2020-040A",
          "EPOCH": "2025-11-30T14:22:11.504064",
          "MEAN_MOTION": 1.00268305,
          "ECCENTRICITY": 0.00049384,
          "INCLINATION": 1.9592,
          "RA_OF_ASC_NODE": 66.4892,
          "ARG_OF_PERICENTER": 307.3549,
          "MEAN_ANOMALY": 21.9844,
          "EPHEMERIS_TYPE": 0,
          "CLASSIFICATION_TYPE": "U",
          "NORAD_CAT_ID": 45807,
          "ELEMENT_SET_NO": 999,
          "REV_AT_EPOCH": 2007,
          "BSTAR": 0,
          "MEAN_MOTION_DOT": -3.32e-06,
          "MEAN_MOTION_DDOT": 0
        }
      },
      "geometry": {
        "type": "Point",
        "coordinates": [
          NaN,
          NaN
        ]
      }
    },
    {
      "type": "Feature",
      "properties": {
        "norad_id": 45854,
        "name": "GPS BIII-3  (PRN 23)",
        "group": "gnss",
        "lat": NaN,
        "lon": NaN,
        "alt_km": NaN,
        "timestamp": "2025-12-01T02:46:59.661018+00:00",
        "meta": {
          "OBJECT_NAME": "GPS BIII-3  (PRN 23)",
          "OBJECT_ID": "2020-041A",
          "EPOCH": "2025-11-30T19:11:54.733920",
          "MEAN_MOTION": 2.0056184,
          "ECCENTRICITY": 0.0060224,
          "INCLINATION": 56.5386,
          "RA_OF_ASC_NODE": 36.6517,
          "ARG_OF_PERICENTER": 202.8806,
          "MEAN_ANOMALY": 160.5748,
          "EPHEMERIS_TYPE": 0,
          "CLASSIFICATION_TYPE": "U",
          "NORAD_CAT_ID": 45854,
          "ELEMENT_SET_NO": 999,
          "REV_AT_EPOCH": 4006,
          "BSTAR": 0,
          "MEAN_MOTION_DOT": -6.5e-07,
          "MEAN_MOTION_DDOT": 0
        }
      },
      "geometry": {
        "type": "Point",
        "coordinates": [
          NaN,
          NaN
        ]
      }
    },
    {
      "type": "Feature",
      "properties": {
        "norad_id": 46114,
        "name": "GALAXY 30 (WAAS/PRN 135)",
        "group": "gnss",
        "lat": NaN,
        "lon": NaN,
        "alt_km": NaN,
        "timestamp": "2025-12-01T02:46:59.661036+00:00",
        "meta": {
          "OBJECT_NAME": "GALAXY 30 (WAAS/PRN 135)",
          "OBJECT_ID": "2020-056C",
          "EPOCH": "2025-11-30T14:57:38.108736",
          "MEAN_MOTION": 1.00272306,
          "ECCENTRICITY": 0.0002286,
          "INCLINATION": 0.0185,
          "RA_OF_ASC_NODE": 288.0747,
          "ARG_OF_PERICENTER": 319.4263,
          "MEAN_ANOMALY": 281.6619,
          "EPHEMERIS_TYPE": 0,
          "CLASSIFICATION_TYPE": "U",
          "NORAD_CAT_ID": 46114,
          "ELEMENT_SET_NO": 999,
          "REV_AT_EPOCH": 1930,
          "BSTAR": 0,
          "MEAN_MOTION_DOT": 5.8e-07,
          "MEAN_MOTION_DDOT": 0
        }
      },
      "geometry": {
        "type": "Point",
        "coordinates": [
          NaN,
          NaN
        ]
      }
    }
  ]
}