COSMOS 2544 [GLONASS-M] 
1 44850U 19088A   25332.65466679  .00000012  00000+0  00000+0 0  9992
2 44850  65.4525  80.4296 0013559 248.4541 111.4081  2.13101801 46441
BEIDOU-3 M19            
1 44864U 19090A   25334.32657953 -.00000033  00000+0  00000+0 0  9997
2 44864  56.3822  69.3740 0017450 284.6281 123.4614  1.86231174 40537
BEIDOU-3 M20            
1 44865U 19090B   25334.72980675 -.00000036  00000+0  00000+0 0  9995
2 44865  56.3841  69.3949 0014593 297.5336 110.5134  1.86231137 40521
BEIDOU-3 G2             
1 45344U 20017A   25334.87802623 -.00000121  00000+0  00000+0 0  9996
2 45344   2.9770  43.5121 0004412 264.0139 158.6326  1.00270725 21276
COSMOS 2545 [GLONASS-M] 
1 45358U 20018A   25334.25830001 -.00000022  00000+0  00000+0 0  9995
2 45358  64.4769 319.4079 0011944 248.2158 111.6706  2.13102401 44425
BEIDOU-3 G3             
1 45807U 20040A   25334.59874426 -.00000332  00000+0  00000+0 0  9999
2 45807   1.9592  66.4892 0004938 307.3549  21.9844  1.00268305 20074
NAVSTAR 79 (USA 304)    
1 45854U 20041A   25334.79993905 -.00000065  00000+0  00000+0 0  9991
2 45854  56.5386  36.6517 0060224 202.8806 160.5748  2.00561840 40066
GALAXY 30 (G-30)        
1 46114U 20056C   25334.62335774  .00000058  00000+0  00000+0 0  9994
2 46114   0.0185 288.0747 0002286 319.4263 281.6619  1.00272306 19301
